[{"OBJECT_NAME":"COSMOS 2409","OBJECT_ID":"2004-037B","EPOCH":"2026-03-09T23:45:47.975040","MEAN_MOTION":12.45320946,"ECCENTRICITY":0.00142208,"INCLINATION":82.4869,"RA_OF_ASC_NODE":31.1814,"ARG_OF_PERICENTER":132.9938,"MEAN_ANOMALY":227.2338,"EPHEMERIS_TYPE":0,"CLASSIFICATION_TYPE":"U","NORAD_CAT_ID":28420,"ELEMENT_SET_NO":999,"REV_AT_EPOCH":97520,"BSTAR":-0.00011281678,"MEAN_MOTION_DOT":-6.0e-8,"MEAN_MOTION_DDOT":0},{"OBJECT_NAME":"SL-8 R\/B","OBJECT_ID":"1970-036J","EPOCH":"2026-03-09T23:06:00.743040","MEAN_MOTION":12.34982888,"ECCENTRICITY":0.00762077,"INCLINATION":74.0293,"RA_OF_ASC_NODE":31.8751,"ARG_OF_PERICENTER":333.7318,"MEAN_ANOMALY":82.3426,"EPHEMERIS_TYPE":0,"CLASSIFICATION_TYPE":"U","NORAD_CAT_ID":4391,"ELEMENT_SET_NO":999,"REV_AT_EPOCH":51878,"BSTAR":-0.00037193365,"MEAN_MOTION_DOT":-6.2e-7,"MEAN_MOTION_DDOT":0}]
